NORAD_CAT_ID,OBJECT_NAME,OBJECT_TYPE,EPOCH,MEAN_MOTION,ECCENTRICITY,INCLINATION,RA_OF_ASC_NODE,ARG_OF_PERICENTER,MEAN_ANOMALY,BSTAR,MEAN_MOTION_DOT,MEAN_MOTION_DDOT,TLE_LINE0,TLE_LINE1,TLE_LINE2,SEMIMAJOR_AXIS,PERIOD,APOGEE,PERIGEE,DECAYED
49445.0,STARLINK-3122,PAYLOAD,2023-02-25 07:11:02,15.08836945,9.22e-05,53.2154,154.8787,109.9122,250.197,0.00099072,0.00015513,0.0,0 STARLINK-3122,1 49445U 21104AP  23056.29933645  .00015513  00000-0  99072-3 0  9996,2 49445  53.2154 154.8787 0000922 109.9122 250.1970 15.08836945 72524,6917.89,95.438,540.393,539.117,0.0
49445.0,STARLINK-3122,PAYLOAD,2023-02-25 11:57:12,15.08841108,0.0001144,53.2153,153.9861,101.6845,258.4275,0.0013185,0.00020759,0.0,0 STARLINK-3122,1 49445U 21104AP  23056.49805707  .00020759  00000-0  13185-2 0  9993,2 49445  53.2153 153.9861 0001144 101.6845 258.4275 15.08841108 71473,6917.877,95.437,540.533,538.951,0.0
49445.0,STARLINK-3122,PAYLOAD,2023-02-25 18:18:44,15.08853594,0.0001278,53.2151,152.7955,104.4873,255.6261,0.0014216,0.00022418,0.0,0 STARLINK-3122,1 49445U 21104AP  23056.76301504  .00022418  00000-0  14216-2 0  9999,2 49445  53.2151 152.7955 0001278 104.4873 255.6261 15.08853594 71513,6917.839,95.437,540.588,538.82,0.0
49445.0,STARLINK-3122,PAYLOAD,2023-02-26 11:47:58,15.08865895,0.00013,53.2159,149.5236,90.1535,269.9606,0.00088078,0.00013767,0.0,0 STARLINK-3122,1 49445U 21104AP  23057.49164713  .00013767  00000-0  88078-3 0  9994,2 49445  53.2159 149.5236 0001300  90.1535 269.9606 15.08865895 71629,6917.801,95.436,540.566,538.767,0.0
49445.0,STARLINK-3122,PAYLOAD,2023-02-26 16:34:07,15.0888737,0.0001324,53.2148,148.6332,84.9999,275.1145,0.0016648,0.00026341,0.0,0 STARLINK-3122,1 49445U 21104AP  23057.69036095  .00026341  00000-0  16648-2 0  9992,2 49445  53.2148 148.6332 0001324  84.9999 275.1145 15.08887370 72737,6917.736,95.435,540.517,538.685,0.0
49445.0,STARLINK-3122,PAYLOAD,2023-02-27 06:52:35,15.08858847,0.0001187,53.2139,145.9573,117.5875,242.5238,0.0013919,0.00021945,0.0,0 STARLINK-3122,1 49445U 21104AP  23058.28652181  .00021945  00000-0  13919-2 0  9991,2 49445  53.2139 145.9573 0001187 117.5875 242.5238 15.08858847 72825,6917.823,95.436,540.509,538.867,0.0
49445.0,STARLINK-3122,PAYLOAD,2023-02-27 13:14:07,15.08917585,0.0001256,53.2135,144.7687,116.4535,243.6586,0.005727,0.00092248,0.0,0 STARLINK-3122,1 49445U 21104AP  23058.55147531  .00092248  00000-0  57270-2 0  9991,2 49445  53.2135 144.7687 0001256 116.4535 243.6586 15.08917585 72869,6917.643,95.433,540.377,538.639,0.0
49445.0,STARLINK-3122,PAYLOAD,2023-02-28 06:43:21,15.08887121,0.0001697,53.2137,141.4971,81.4601,278.6584,0.002016,0.00031984,0.0,0 STARLINK-3122,1 49445U 21104AP  23059.28010966  .00031984  00000-0  20160-2 0  9991,2 49445  53.2137 141.4971 0001697  81.4601 278.6584 15.08887121 72975,6917.736,95.435,540.775,538.427,0.0
49445.0,STARLINK-3122,PAYLOAD,2023-02-28 13:04:54,15.08852529,0.0001057,53.2143,140.3082,87.3421,272.7692,0.0025332,0.00040272,0.0,0 STARLINK-3122,1 49445U 21104AP  23059.54507775  .00040272  00000-0  25332-2 0  9995,2 49445  53.2143 140.3082 0001057  87.3421 272.7692 15.08852529 71932,6917.842,95.437,540.438,538.976,0.0
49445.0,STARLINK-3122,PAYLOAD,2023-03-01 11:20:20,15.08814778,0.0001544,53.2151,136.1453,143.4556,216.6542,0.001914,0.00030284,0.0,0 STARLINK-3122,1 49445U 21104AP  23060.47246506  .00030284  00000-0  19140-2 0  9993,2 49445  53.2151 136.1453 0001544 143.4556 216.6542 15.08814778 73151,6917.957,95.439,540.891,538.754,0.0
49445.0,STARLINK-3122,PAYLOAD,2023-03-01 16:06:31,15.08803751,0.0001652,53.215,135.2531,53.4565,306.6579,0.0009652,0.00015091,0.0,0 STARLINK-3122,1 49445U 21104AP  23060.67119590  .00015091  00000-0  96520-3 0  9994,2 49445  53.2150 135.2531 0001652  53.4565 306.6579 15.08803751 73189,6917.991,95.44,540.999,538.713,0.0
49445.0,STARLINK-3122,PAYLOAD,2023-03-01 22:28:03,15.0882549,0.000125,53.2155,134.0645,50.6881,309.4222,0.0014973,0.00023612,0.0,0 STARLINK-3122,1 49445U 21104AP  23060.93615481  .00023612  00000-0  14973-2 0  9992,2 49445  53.2155 134.0645 0001250  50.6881 309.4222 15.08825490 73226,6917.925,95.438,540.654,538.925,0.0
49445.0,STARLINK-3122,PAYLOAD,2023-03-02 15:57:17,15.08905519,0.0001536,53.2145,130.7931,57.6941,302.42,0.0028799,0.00045927,0.0,0 STARLINK-3122,1 49445U 21104AP  23061.66478029  .00045927  00000-0  28799-2 0  9992,2 49445  53.2145 130.7931 0001536  57.6941 302.4200 15.08905519 72259,6917.68,95.433,540.608,538.483,0.0
49445.0,STARLINK-3122,PAYLOAD,2023-03-03 09:26:30,15.08893222,0.000125,53.2151,127.52,74.1843,285.9287,0.0028677,0.00045714,0.0,0 STARLINK-3122,1 49445U 21104AP  23062.39341047  .00045714  00000-0  28677-2 0  9991,2 49445  53.2151 127.5200 0001250  74.1843 285.9287 15.08893222 73446,6917.718,95.434,540.447,538.718,0.0
49445.0,STARLINK-3122,PAYLOAD,2023-03-03 11:01:53,15.08893974,0.000123,53.215,127.2232,70.0212,290.0912,0.0030528,0.00048705,0.0,0 STARLINK-3122,1 49445U 21104AP  23062.45964947  .00048705  00000-0  30528-2 0  9999,2 49445  53.2150 127.2232 0001230  70.0212 290.0912 15.08893974 72377,6917.715,95.434,540.431,538.73,0.0
49445.0,STARLINK-3122,PAYLOAD,2023-03-03 15:48:02,15.08904167,0.0001561,53.216,126.3324,61.1435,298.9714,0.0027867,0.0004442,0.0,0 STARLINK-3122,1 49445U 21104AP  23062.65836384  .00044420  00000-0  27867-2 0  9996,2 49445  53.2160 126.3324 0001561  61.1435 298.9714 15.08904167 73482,6917.684,95.433,540.629,538.469,0.0
49445.0,STARLINK-3122,PAYLOAD,2023-03-04 10:52:40,15.08852493,0.0001267,53.2155,122.7626,104.0922,256.021,0.002557,0.00040656,0.0,0 STARLINK-3122,1 49445U 21104AP  23063.45325095  .00040656  00000-0  25570-2 0  9993,2 49445  53.2155 122.7626 0001267 104.0922 256.0210 15.08852493 72526,6917.842,95.437,540.584,538.831,0.0
49445.0,STARLINK-3122,PAYLOAD,2023-03-04 15:38:50,15.08874116,0.000126,53.2154,121.871,102.9044,257.2089,0.0030677,0.00048919,0.0,0 STARLINK-3122,1 49445U 21104AP  23063.65196794  .00048919  00000-0  30677-2 0  9991,2 49445  53.2154 121.8710 0001260 102.9044 257.2089 15.08874116 73630,6917.776,95.435,540.513,538.769,0.0
49445.0,STARLINK-3122,PAYLOAD,2023-03-04 20:24:59,15.08829712,0.0001337,53.2158,120.9782,108.9941,251.1196,-9.2757e-05,-1.763e-05,0.0,0 STARLINK-3122,1 49445U 21104AP  23063.85069303 -.00001763  00000-0 -92757-4 0  9995,2 49445  53.2158 120.9782 0001337 108.9941 251.1196 15.08829712 73667,6917.912,95.438,540.702,538.852,0.0
49445.0,STARLINK-3122,PAYLOAD,2023-03-05 12:18:51,15.08857935,0.0001282,53.2154,118.0041,101.2869,258.8268,0.0024845,0.00039494,0.0,0 STARLINK-3122,1 49445U 21104AP  23064.51309534  .00039494  00000-0  24845-2 0  9993,2 49445  53.2154 118.0041 0001282 101.2869 258.8268 15.08857935 73766,6917.826,95.436,540.577,538.804,0.0
49445.0,STARLINK-3122,PAYLOAD,2023-03-05 20:15:47,15.08853652,0.0001348,53.2149,116.5181,116.6696,243.4434,0.0012281,0.00019319,0.0,0 STARLINK-3122,1 49445U 21104AP  23064.84429522  .00019319  00000-0  12281-2 0  9994,2 49445  53.2149 116.5181 0001348 116.6696 243.4434 15.08853652 73812,6917.839,95.437,540.636,538.771,0.0
49445.0,STARLINK-3122,PAYLOAD,2023-03-06 10:34:15,15.088583,0.0001534,53.2149,113.8432,113.4661,246.6493,0.00099484,0.00015588,0.0,0 STARLINK-3122,1 49445U 21104AP  23065.44045365  .00015588  00000-0  99484-3 0  9995,2 49445  53.2149 113.8432 0001534 113.4661 246.6493 15.08858300 73900,6917.824,95.436,540.751,538.628,0.0
49445.0,STARLINK-3122,PAYLOAD,2023-03-06 15:20:24,15.0887128,0.0001745,53.2151,112.9499,111.1678,248.9501,0.0012491,0.00019664,0.0,0 STARLINK-3122,1 49445U 21104AP  23065.63916934  .00019664  00000-0  12491-2 0  9996,2 49445  53.2151 112.9499 0001745 111.1678 248.9501 15.08871280 72853,6917.785,95.436,540.857,538.443,0.0
49445.0,STARLINK-3122,PAYLOAD,2023-03-07 08:49:39,15.08842736,0.0001627,53.2141,109.6788,133.5696,226.5431,0.0018979,0.00030049,0.0,0 STARLINK-3122,1 49445U 21104AP  23066.36781716  .00030049  00000-0  18979-2 0  9992,2 49445  53.2141 109.6788 0001627 133.5696 226.5431 15.08842736 74044,6917.872,95.437,540.863,538.611,0.0
49445.0,STARLINK-3122,PAYLOAD,2023-03-07 15:11:12,15.08849605,0.0001368,53.2144,108.4882,96.7281,263.3867,0.0018376,0.00029086,0.0,0 STARLINK-3122,1 49445U 21104AP  23066.63277909  .00029086  00000-0  18376-2 0  9996,2 49445  53.2144 108.4882 0001368  96.7281 263.3867 15.08849605 73000,6917.851,95.437,540.662,538.77,0.0
49445.0,STARLINK-3122,PAYLOAD,2023-03-08 10:15:50,15.08860092,0.0001195,53.2138,104.9199,91.0011,269.1118,0.0028578,0.00045513,0.0,0 STARLINK-3122,1 49445U 21104AP  23067.42766623  .00045513  00000-0  28578-2 0  9998,2 49445  53.2138 104.9199 0001195  91.0011 269.1118 15.08860092 74201,6917.819,95.436,540.511,538.857,0.0
49445.0,STARLINK-3122,PAYLOAD,2023-03-08 19:48:09,15.08865512,0.0001311,53.2146,103.1356,96.8947,263.2195,0.0021983,0.00034896,0.0,0 STARLINK-3122,1 49445U 21104AP  23067.82510486  .00034896  00000-0  21983-2 0  9991,2 49445  53.2146 103.1356 0001311  96.8947 263.2195 15.08865512 74265,6917.802,95.436,540.574,538.76,0.0
49445.0,STARLINK-3122,PAYLOAD,2023-03-09 06:55:50,15.08863718,0.0001664,53.2144,101.0519,106.9949,253.1226,0.0013752,0.0002168,0.0,0 STARLINK-3122,1 49445U 21104AP  23068.28878172  .00021680  00000-0  13752-2 0  9993,2 49445  53.2144 101.0519 0001664 106.9949 253.1226 15.08863718 74334,6917.808,95.436,540.824,538.522,0.0
49445.0,STARLINK-3122,PAYLOAD,2023-03-09 19:38:55,15.08854059,0.0001592,53.2145,98.6733,97.4328,262.6845,0.0004947,7.597e-05,0.0,0 STARLINK-3122,1 49445U 21104AP  23068.81869940  .00007597  00000-0  49470-3 0  9993,2 49445  53.2145  98.6733 0001592  97.4328 262.6845 15.08854059 73338,6917.837,95.437,540.804,538.601,0.0
49445.0,STARLINK-3122,PAYLOAD,2023-03-10 05:11:14,15.08858709,0.0001295,53.2149,96.8889,99.5741,260.5398,0.00068,0.00010556,0.0,0 STARLINK-3122,1 49445U 21104AP  23069.21613465  .00010556  00000-0  68000-3 0  9996,2 49445  53.2149  96.8889 0001295  99.5741 260.5398 15.08858709 74478,6917.823,95.436,540.584,538.792,0.0
